start=new Date('2022-07-16T00:00:00.000Z').valueOf();
sats=[{"RA_OF_ASC_NODE":"253.4012","OBJECT_NAME":"STARLINK-1203","GP_ID":"208200911","ECCENTRICITY":"0.00006500","CENTER_NAME":"EARTH","MEAN_ELEMENT_THEORY":"SGP4","COUNTRY_CODE":"US","APOAPSIS":"517.488","NORAD_CAT_ID":"45202","BSTAR":"0.00092275000000","REF_FRAME":"TEME","MEAN_MOTION":"15.16299107","CLASSIFICATION_TYPE":"U","MEAN_ANOMALY":"357.6346","EPHEMERIS_TYPE":"0","TLE_LINE1":"1 45202U 20012AA  22196.85182453  .00017824  00000-0  92275-3 0  9994","TLE_LINE2":"2 45202  52.9789 253.4012 0000650   2.4649 357.6346 15.16299107134157","RCS_SIZE":"LARGE","SITE":"AFETR","ELEMENT_SET_NO":"999","ARG_OF_PERICENTER":"2.4649","PERIOD":"94.968","TIME_SYSTEM":"UTC","MEAN_MOTION_DDOT":"0.0000000000000","OBJECT_ID":"2020-012AA","MEAN_MOTION_DOT":"0.00017824","LAUNCH_DATE":"2020-02-17","REV_AT_EPOCH":"13415","EPOCH":"2022-07-15T20:26:37.639392","SEMIMAJOR_AXIS":"6895.174","DECAY_DATE":null,"PERIAPSIS":"516.591","OBJECT_TYPE":"PAYLOAD","FILE":"3514839","INCLINATION":"52.9789"},{"SEMIMAJOR_AXIS":"6925.378","EPOCH":"2022-07-15T20:25:15.544704","INCLINATION":"53.0533","FILE":"3514839","OBJECT_TYPE":"PAYLOAD","PERIAPSIS":"546.078","DECAY_DATE":null,"PERIOD":"95.593","ELEMENT_SET_NO":"999","ARG_OF_PERICENTER":"64.2232","SITE":"AFETR","REV_AT_EPOCH":"13424","LAUNCH_DATE":"2020-02-17","MEAN_MOTION_DOT":"-0.00000871","OBJECT_ID":"2020-012AC","MEAN_MOTION_DDOT":"0.0000000000000","TIME_SYSTEM":"UTC","TLE_LINE1":"1 45204U 20012AC  22196.85087436 -.00000871  00000-0 -39593-4 0  9992","EPHEMERIS_TYPE":"0","MEAN_ANOMALY":"295.8930","CLASSIFICATION_TYPE":"U","MEAN_MOTION":"15.06390508","REF_FRAME":"TEME","RCS_SIZE":"LARGE","TLE_LINE2":"2 45204  53.0533 249.9681 0001682  64.2232 295.8930 15.06390508134248","APOAPSIS":"548.407","COUNTRY_CODE":"US","MEAN_ELEMENT_THEORY":"SGP4","ECCENTRICITY":"0.00016820","CENTER_NAME":"EARTH","GP_ID":"208201162","OBJECT_NAME":"STARLINK-1206","RA_OF_ASC_NODE":"249.9681","BSTAR":"-0.00003959300000","NORAD_CAT_ID":"45204"},{"MEAN_ANOMALY":"292.1834","TLE_LINE1":"1 45205U 20012AD  22196.87297677  .00002029  00000-0  15506-3 0  9997","EPHEMERIS_TYPE":"0","REF_FRAME":"TEME","MEAN_MOTION":"15.06400293","CLASSIFICATION_TYPE":"U","TLE_LINE2":"2 45205  53.0546 249.8542 0001682  67.9334 292.1834 15.06400293134258","RCS_SIZE":"LARGE","CENTER_NAME":"EARTH","ECCENTRICITY":"0.00016820","MEAN_ELEMENT_THEORY":"SGP4","COUNTRY_CODE":"US","APOAPSIS":"548.378","RA_OF_ASC_NODE":"249.8542","OBJECT_NAME":"STARLINK-1208","GP_ID":"208199910","NORAD_CAT_ID":"45205","BSTAR":"0.00015506000000","EPOCH":"2022-07-15T20:57:05.192928","SEMIMAJOR_AXIS":"6925.348","FILE":"3514839","INCLINATION":"53.0546","DECAY_DATE":null,"PERIAPSIS":"546.048","OBJECT_TYPE":"PAYLOAD","SITE":"AFETR","ARG_OF_PERICENTER":"67.9334","ELEMENT_SET_NO":"999","PERIOD":"95.592","LAUNCH_DATE":"2020-02-17","REV_AT_EPOCH":"13425","TIME_SYSTEM":"UTC","MEAN_MOTION_DDOT":"0.0000000000000","OBJECT_ID":"2020-012AD","MEAN_MOTION_DOT":"0.00002029"},{"EPOCH":"2022-07-15T20:01:21.488736","SEMIMAJOR_AXIS":"6925.329","DECAY_DATE":null,"OBJECT_TYPE":"PAYLOAD","PERIAPSIS":"546.207","INCLINATION":"53.0519","FILE":"3514839","SITE":"AFETR","ELEMENT_SET_NO":"999","ARG_OF_PERICENTER":"66.4129","PERIOD":"95.592","TIME_SYSTEM":"UTC","MEAN_MOTION_DDOT":"0.0000000000000","OBJECT_ID":"2020-012AE","MEAN_MOTION_DOT":"0.00002735","LAUNCH_DATE":"2020-02-17","REV_AT_EPOCH":"13355","REF_FRAME":"TEME","MEAN_MOTION":"15.06406330","CLASSIFICATION_TYPE":"U","MEAN_ANOMALY":"293.7010","TLE_LINE1":"1 45206U 20012AE  22196.83427649  .00002735  00000-0  20240-3 0  9993","EPHEMERIS_TYPE":"0","TLE_LINE2":"2 45206  53.0519 230.0312 0001426  66.4129 293.7010 15.06406330133551","RCS_SIZE":"LARGE","RA_OF_ASC_NODE":"230.0312","OBJECT_NAME":"STARLINK-1209","GP_ID":"208200160","CENTER_NAME":"EARTH","ECCENTRICITY":"0.00014260","MEAN_ELEMENT_THEORY":"SGP4","COUNTRY_CODE":"US","APOAPSIS":"548.182","NORAD_CAT_ID":"45206","BSTAR":"0.00020240000000"},{"NORAD_CAT_ID":"45207","BSTAR":"0.00008797700000","RA_OF_ASC_NODE":"251.8451","OBJECT_NAME":"STARLINK-1210","GP_ID":"208169857","CENTER_NAME":"EARTH","ECCENTRICITY":"0.00012480","MEAN_ELEMENT_THEORY":"SGP4","COUNTRY_CODE":"US","APOAPSIS":"548.093","TLE_LINE2":"2 45207  53.0543 251.8451 0001248  66.9546 293.1574 15.06394931134164","RCS_SIZE":"LARGE","REF_FRAME":"TEME","MEAN_MOTION":"15.06394931","CLASSIFICATION_TYPE":"U","MEAN_ANOMALY":"293.1574","EPHEMERIS_TYPE":"0","TLE_LINE1":"1 45207U 20012AF  22196.43067458  .00001029  00000-0  87977-4 0  9994","TIME_SYSTEM":"UTC","MEAN_MOTION_DDOT":"0.0000000000000","OBJECT_ID":"2020-012AF","MEAN_MOTION_DOT":"0.00001029","LAUNCH_DATE":"2020-02-17","REV_AT_EPOCH":"13416","SITE":"AFETR","ELEMENT_SET_NO":"999","ARG_OF_PERICENTER":"66.9546","PERIOD":"95.592","DECAY_DATE":null,"PERIAPSIS":"546.365","OBJECT_TYPE":"PAYLOAD","FILE":"3514546","INCLINATION":"53.0543","EPOCH":"2022-07-15T10:20:10.283712","SEMIMAJOR_AXIS":"6925.364"},{"GP_ID":"208200662","OBJECT_NAME":"STARLINK-1211","RA_OF_ASC_NODE":"249.8858","COUNTRY_CODE":"US","MEAN_ELEMENT_THEORY":"SGP4","APOAPSIS":"550.553","CENTER_NAME":"EARTH","ECCENTRICITY":"0.00012190","BSTAR":"0.00014841000000","NORAD_CAT_ID":"45208","CLASSIFICATION_TYPE":"U","REF_FRAME":"TEME","MEAN_MOTION":"15.05586469","TLE_LINE1":"1 45208U 20012AG  22196.86942212  .00001884  00000-0  14841-3 0  9990","EPHEMERIS_TYPE":"0","MEAN_ANOMALY":"271.6689","RCS_SIZE":"LARGE","TLE_LINE2":"2 45208  52.9998 249.8858 0001219  88.4439 271.6689 15.05586469134125","PERIOD":"95.644","SITE":"AFETR","ARG_OF_PERICENTER":"88.4439","ELEMENT_SET_NO":"999","OBJECT_ID":"2020-012AG","MEAN_MOTION_DOT":"0.00001884","TIME_SYSTEM":"UTC","MEAN_MOTION_DDOT":"0.0000000000000","LAUNCH_DATE":"2020-02-17","REV_AT_EPOCH":"13412","EPOCH":"2022-07-15T20:51:58.071168","SEMIMAJOR_AXIS":"6927.843","OBJECT_TYPE":"PAYLOAD","PERIAPSIS":"548.864","DECAY_DATE":null,"INCLINATION":"52.9998","FILE":"3514839"},{"TLE_LINE2":"2 45209  53.0434  62.1212 0008322 292.2975  67.7162 15.76745379136807","RCS_SIZE":"LARGE","MEAN_MOTION":"15.76745379","REF_FRAME":"TEME","CLASSIFICATION_TYPE":"U","MEAN_ANOMALY":"67.7162","EPHEMERIS_TYPE":"0","TLE_LINE1":"1 45209U 20012AH  22196.90805634  .00018143  00000-0  11434-3 0  9993","NORAD_CAT_ID":"45209","BSTAR":"0.00011434000000","RA_OF_ASC_NODE":"62.1212","OBJECT_NAME":"STARLINK-1218","GP_ID":"208199411","ECCENTRICITY":"0.00083220","CENTER_NAME":"EARTH","APOAPSIS":"345.262","COUNTRY_CODE":"US","MEAN_ELEMENT_THEORY":"SGP4","DECAY_DATE":null,"PERIAPSIS":"334.081","OBJECT_TYPE":"PAYLOAD","INCLINATION":"53.0434","FILE":"3514839","SEMIMAJOR_AXIS":"6717.806","EPOCH":"2022-07-15T21:47:36.067776","MEAN_MOTION_DDOT":"0.0000000000000","TIME_SYSTEM":"UTC","MEAN_MOTION_DOT":"0.00018143","OBJECT_ID":"2020-012AH","REV_AT_EPOCH":"13680","LAUNCH_DATE":"2020-02-17","ARG_OF_PERICENTER":"292.2975","ELEMENT_SET_NO":"999","SITE":"AFETR","PERIOD":"91.327"},{"RCS_SIZE":"LARGE","TLE_LINE2":"2 45210  53.0538 251.2534 0001866  77.9893 282.1305 15.06397599134074","CLASSIFICATION_TYPE":"U","REF_FRAME":"TEME","MEAN_MOTION":"15.06397599","EPHEMERIS_TYPE":"0","TLE_LINE1":"1 45210U 20012AJ  22196.56705014 -.00001594  00000-0 -88161-4 0  9994","MEAN_ANOMALY":"282.1305","BSTAR":"-0.00008816100000","NORAD_CAT_ID":"45210","OBJECT_NAME":"STARLINK-1219","GP_ID":"208169613","RA_OF_ASC_NODE":"251.2534","COUNTRY_CODE":"US","MEAN_ELEMENT_THEORY":"SGP4","APOAPSIS":"548.513","CENTER_NAME":"EARTH","ECCENTRICITY":"0.00018660","OBJECT_TYPE":"PAYLOAD","PERIAPSIS":"545.929","DECAY_DATE":null,"FILE":"3514546","INCLINATION":"53.0538","EPOCH":"2022-07-15T13:36:33.132096","SEMIMAJOR_AXIS":"6925.356","OBJECT_ID":"2020-012AJ","MEAN_MOTION_DOT":"-0.00001594","TIME_SYSTEM":"UTC","MEAN_MOTION_DDOT":"0.0000000000000","LAUNCH_DATE":"2020-02-17","REV_AT_EPOCH":"13407","PERIOD":"95.592","SITE":"AFETR","ARG_OF_PERICENTER":"77.9893","ELEMENT_SET_NO":"999"},{"CLASSIFICATION_TYPE":"U","REF_FRAME":"TEME","MEAN_MOTION":"15.06400165","EPHEMERIS_TYPE":"0","TLE_LINE1":"1 45212U 20012AL  22196.86561278  .00001274  00000-0  10442-3 0  9990","MEAN_ANOMALY":"288.9392","RCS_SIZE":"LARGE","TLE_LINE2":"2 45212  53.0556 249.9091 0001535  71.1763 288.9392 15.06400165134189","OBJECT_NAME":"STARLINK-1231","GP_ID":"208200912","RA_OF_ASC_NODE":"249.9091","MEAN_ELEMENT_THEORY":"SGP4","COUNTRY_CODE":"US","APOAPSIS":"548.276","ECCENTRICITY":"0.00015350","CENTER_NAME":"EARTH","BSTAR":"0.00010442000000","NORAD_CAT_ID":"45212","EPOCH":"2022-07-15T20:46:28.944192","SEMIMAJOR_AXIS":"6925.348","OBJECT_TYPE":"PAYLOAD","PERIAPSIS":"546.150","DECAY_DATE":null,"FILE":"3514839","INCLINATION":"53.0556","PERIOD":"95.592","SITE":"AFETR","ARG_OF_PERICENTER":"71.1763","ELEMENT_SET_NO":"999","OBJECT_ID":"2020-012AL","MEAN_MOTION_DOT":"0.00001274","TIME_SYSTEM":"UTC","MEAN_MOTION_DDOT":"0.0000000000000","LAUNCH_DATE":"2020-02-17","REV_AT_EPOCH":"13418"},{"EPOCH":"2022-07-15T18:16:46.593696","SEMIMAJOR_AXIS":"6823.784","FILE":"3514839","INCLINATION":"53.0578","DECAY_DATE":null,"PERIAPSIS":"443.855","OBJECT_TYPE":"PAYLOAD","SITE":"AFETR","ARG_OF_PERICENTER":"339.3205","ELEMENT_SET_NO":"999","PERIOD":"93.497","LAUNCH_DATE":"2020-02-17","REV_AT_EPOCH":"13475","TIME_SYSTEM":"UTC","MEAN_MOTION_DDOT":"0.0000000000000","OBJECT_ID":"2020-012AM","MEAN_MOTION_DOT":"0.00007698","MEAN_ANOMALY":"20.7692","EPHEMERIS_TYPE":"0","TLE_LINE1":"1 45213U 20012AM  22196.76165039  .00007698  00000-0  19876-3 0  9991","REF_FRAME":"TEME","MEAN_MOTION":"15.40156395","CLASSIFICATION_TYPE":"U","TLE_LINE2":"2 45213  53.0578 212.7769 0002630 339.3205  20.7692 15.40156395134750","RCS_SIZE":"LARGE","ECCENTRICITY":"0.00026300","CENTER_NAME":"EARTH","MEAN_ELEMENT_THEORY":"SGP4","COUNTRY_CODE":"US","APOAPSIS":"447.444","RA_OF_ASC_NODE":"212.7769","OBJECT_NAME":"STARLINK-1232","GP_ID":"208201163","NORAD_CAT_ID":"45213","BSTAR":"0.00019876000000"}];
